{
  "type": "FeatureCollection",
  "features": [
    {
      "type": "Feature",
      "properties": {
        "norad_id": 66522,
        "name": "STARLINK-35946",
        "group": "last-30-days",
        "lat": -20.484408651856448,
        "lon": -48.52074932171058,
        "alt_km": 345.6147402897104,
        "timestamp": "2025-12-03T15:48:01.919828+00:00",
        "meta_object_name": "STARLINK-35946",
        "meta_object_id": "2025-265G",
        "meta_epoch": "2025-12-03T06:00:02.999808",
        "meta_mean_motion": 15.75037267,
        "meta_eccentricity": 0.00018233,
        "meta_inclination": 42.9996,
        "meta_ra_of_asc_node": 110.3222,
        "meta_arg_of_pericenter": 255.9374,
        "meta_mean_anomaly": 156.7985,
        "meta_ephemeris_type": 0,
        "meta_classification_type": "U",
        "meta_norad_cat_id": 66522,
        "meta_element_set_no": 999,
        "meta_rev_at_epoch": 347,
        "meta_bstar": 0.00022582161,
        "meta_mean_motion_dot": 0.0003435,
        "meta_mean_motion_ddot": 0,
        "tle_line1": "1 66522U 25265G   25337.25003472  .00034350  00000+0  22582-3 0  9990",
        "tle_line2": "2 66522  42.9996 110.3222 0001823 255.9374 156.7985 15.75037267  3470"
      },
      "geometry": {
        "type": "Point",
        "coordinates": [
          -48.52074932171058,
          -20.484408651856448
        ]
      }
    },
    {
      "type": "Feature",
      "properties": {
        "norad_id": 66523,
        "name": "STARLINK-35969",
        "group": "last-30-days",
        "lat": -21.669400977627845,
        "lon": -46.921356729721566,
        "alt_km": 345.90100642093967,
        "timestamp": "2025-12-03T15:48:01.919837+00:00",
        "meta_object_name": "STARLINK-35969",
        "meta_object_id": "2025-265H",
        "meta_epoch": "2025-12-03T06:00:02.999808",
        "meta_mean_motion": 15.75024907,
        "meta_eccentricity": 0.00016644,
        "meta_inclination": 42.9998,
        "meta_ra_of_asc_node": 110.3173,
        "meta_arg_of_pericenter": 264.8404,
        "meta_mean_anomaly": 149.8176,
        "meta_ephemeris_type": 0,
        "meta_classification_type": "U",
        "meta_norad_cat_id": 66523,
        "meta_element_set_no": 999,
        "meta_rev_at_epoch": 347,
        "meta_bstar": 0.00029975036,
        "meta_mean_motion_dot": 0.00045789,
        "meta_mean_motion_ddot": 0,
        "tle_line1": "1 66523U 25265H   25337.25003472  .00045789  00000+0  29975-3 0  9992",
        "tle_line2": "2 66523  42.9998 110.3173 0001664 264.8404 149.8176 15.75024907  3476"
      },
      "geometry": {
        "type": "Point",
        "coordinates": [
          -46.921356729721566,
          -21.669400977627845
        ]
      }
    },
    {
      "type": "Feature",
      "properties": {
        "norad_id": 66524,
        "name": "STARLINK-35687",
        "group": "last-30-days",
        "lat": -22.845341609309763,
        "lon": -45.28615169549678,
        "alt_km": 345.79575452232893,
        "timestamp": "2025-12-03T15:48:01.919846+00:00",
        "meta_object_name": "STARLINK-35687",
        "meta_object_id": "2025-265J",
        "meta_epoch": "2025-12-03T06:00:02.999808",
        "meta_mean_motion": 15.75032995,
        "meta_eccentricity": 0.00017285,
        "meta_inclination": 42.9997,
        "meta_ra_of_asc_node": 110.3122,
        "meta_arg_of_pericenter": 254.9046,
        "meta_mean_anomaly": 161.6686,
        "meta_ephemeris_type": 0,
        "meta_classification_type": "U",
        "meta_norad_cat_id": 66524,
        "meta_element_set_no": 999,
        "meta_rev_at_epoch": 347,
        "meta_bstar": 0.00021928153,
        "meta_mean_motion_dot": 0.0003333,
        "meta_mean_motion_ddot": 0,
        "tle_line1": "1 66524U 25265J   25337.25003472  .00033330  00000+0  21928-3 0  9992",
        "tle_line2": "2 66524  42.9997 110.3122 0001728 254.9046 161.6686 15.75032995  3477"
      },
      "geometry": {
        "type": "Point",
        "coordinates": [
          -45.28615169549678,
          -22.845341609309763
        ]
      }
    },
    {
      "type": "Feature",
      "properties": {
        "norad_id": 66525,
        "name": "STARLINK-35975",
        "group": "last-30-days",
        "lat": -24.001430365834096,
        "lon": -43.62606274061448,
        "alt_km": 345.81865956362617,
        "timestamp": "2025-12-03T15:48:01.919856+00:00",
        "meta_object_name": "STARLINK-35975",
        "meta_object_id": "2025-265K",
        "meta_epoch": "2025-12-03T06:00:02.999808",
        "meta_mean_motion": 15.75033513,
        "meta_eccentricity": 0.00017813,
        "meta_inclination": 42.9996,
        "meta_ra_of_asc_node": 110.3076,
        "meta_arg_of_pericenter": 254.0038,
        "meta_mean_anomaly": 164.4853,
        "meta_ephemeris_type": 0,
        "meta_classification_type": "U",
        "meta_norad_cat_id": 66525,
        "meta_element_set_no": 999,
        "meta_rev_at_epoch": 347,
        "meta_bstar": 0.00022204297,
        "meta_mean_motion_dot": 0.00033759,
        "meta_mean_motion_ddot": 0,
        "tle_line1": "1 66525U 25265K   25337.25003472  .00033759  00000+0  22204-3 0  9996",
        "tle_line2": "2 66525  42.9996 110.3076 0001781 254.0038 164.4853 15.75033513  3470"
      },
      "geometry": {
        "type": "Point",
        "coordinates": [
          -43.62606274061448,
          -24.001430365834096
        ]
      }
    },
    {
      "type": "Feature",
      "properties": {
        "norad_id": 66526,
        "name": "STARLINK-35932",
        "group": "last-30-days",
        "lat": -25.067831539142578,
        "lon": -42.044218663168515,
        "alt_km": 345.82914283790524,
        "timestamp": "2025-12-03T15:48:01.919866+00:00",
        "meta_object_name": "STARLINK-35932",
        "meta_object_id": "2025-265L",
        "meta_epoch": "2025-12-03T06:00:02.999808",
        "meta_mean_motion": 15.7489382,
        "meta_eccentricity": 0.00022615,
        "meta_inclination": 42.9996,
        "meta_ra_of_asc_node": 110.3029,
        "meta_arg_of_pericenter": 275.8118,
        "meta_mean_anomaly": 144.5221,
        "meta_ephemeris_type": 0,
        "meta_classification_type": "U",
        "meta_norad_cat_id": 66526,
        "meta_element_set_no": 999,
        "meta_rev_at_epoch": 336,
        "meta_bstar": 0.0020275777,
        "meta_mean_motion_dot": 0.00321093,
        "meta_mean_motion_ddot": 0,
        "tle_line1": "1 66526U 25265L   25337.25003472  .00321093  00000+0  20276-2 0  9994",
        "tle_line2": "2 66526  42.9996 110.3029 0002261 275.8118 144.5221 15.74893820  3363"
      },
      "geometry": {
        "type": "Point",
        "coordinates": [
          -42.044218663168515,
          -25.067831539142578
        ]
      }
    },
    {
      "type": "Feature",
      "properties": {
        "norad_id": 66527,
        "name": "STARLINK-35935",
        "group": "last-30-days",
        "lat": -26.17823366500095,
        "lon": -40.33843920990012,
        "alt_km": 346.74986049280596,
        "timestamp": "2025-12-03T15:48:01.919875+00:00",
        "meta_object_name": "STARLINK-35935",
        "meta_object_id": "2025-265M",
        "meta_epoch": "2025-12-03T06:00:02.999808",
        "meta_mean_motion": 15.74967034,
        "meta_eccentricity": 0.00012436,
        "meta_inclination": 42.9996,
        "meta_ra_of_asc_node": 110.2985,
        "meta_arg_of_pericenter": 267.3668,
        "meta_mean_anomaly": 154.971,
        "meta_ephemeris_type": 0,
        "meta_classification_type": "U",
        "meta_norad_cat_id": 66527,
        "meta_element_set_no": 999,
        "meta_rev_at_epoch": 347,
        "meta_bstar": -0.00037742493,
        "meta_mean_motion_dot": -0.00057873,
        "meta_mean_motion_ddot": 0,
        "tle_line1": "1 66527U 25265M   25337.25003472 -.00057873  00000+0 -37742-3 0  9996",
        "tle_line2": "2 66527  42.9996 110.2985 0001243 267.3668 154.9710 15.74967034  3478"
      },
      "geometry": {
        "type": "Point",
        "coordinates": [
          -40.33843920990012,
          -26.17823366500095
        ]
      }
    },
    {
      "type": "Feature",
      "properties": {
        "norad_id": 66528,
        "name": "STARLINK-35928",
        "group": "last-30-days",
        "lat": -27.314889260318054,
        "lon": -38.5251102183173,
        "alt_km": 346.1870330456386,
        "timestamp": "2025-12-03T15:48:01.919889+00:00",
        "meta_object_name": "STARLINK-35928",
        "meta_object_id": "2025-265N",
        "meta_epoch": "2025-12-03T06:00:02.999808",
        "meta_mean_motion": 15.75049277,
        "meta_eccentricity": 0.00016074,
        "meta_inclination": 42.9997,
        "meta_ra_of_asc_node": 110.2935,
        "meta_arg_of_pericenter": 269.3553,
        "meta_mean_anomaly": 154.7811,
        "meta_ephemeris_type": 0,
        "meta_classification_type": "U",
        "meta_norad_cat_id": 66528,
        "meta_element_set_no": 999,
        "meta_rev_at_epoch": 347,
        "meta_bstar": 0.00035637948,
        "meta_mean_motion_dot": 0.00054645,
        "meta_mean_motion_ddot": 0,
        "tle_line1": "1 66528U 25265N   25337.25003472  .00054645  00000+0  35638-3 0  9991",
        "tle_line2": "2 66528  42.9997 110.2935 0001607 269.3553 154.7811 15.75049277  3475"
      },
      "geometry": {
        "type": "Point",
        "coordinates": [
          -38.5251102183173,
          -27.314889260318054
        ]
      }
    }
  ]
}